[{"OBJECT_NAME":"ONEWEB-0629","OBJECT_ID":"2023-004AG","EPOCH":"2025-09-01T06:03:19.985760","MEAN_MOTION":13.17647511,"ECCENTRICITY":0.00020536,"INCLINATION":87.9034,"RA_OF_ASC_NODE":63.3643,"ARG_OF_PERICENTER":84.8267,"MEAN_ANOMALY":275.3099,"EPHEMERIS_TYPE":0,"CLASSIFICATION_TYPE":"U","NORAD_CAT_ID":55170,"ELEMENT_SET_NO":999,"REV_AT_EPOCH":12953,"BSTAR":-2.5158477e-5,"MEAN_MOTION_DOT":3.0e-8,"MEAN_MOTION_DDOT":0},{"OBJECT_NAME":"ONEWEB-0631","OBJECT_ID":"2023-004AH","EPOCH":"2025-09-01T03:55:18.474528","MEAN_MOTION":13.1868497,"ECCENTRICITY":0.00016479,"INCLINATION":87.9166,"RA_OF_ASC_NODE":32.8252,"ARG_OF_PERICENTER":114.0943,"MEAN_ANOMALY":246.0362,"EPHEMERIS_TYPE":0,"CLASSIFICATION_TYPE":"U","NORAD_CAT_ID":55171,"ELEMENT_SET_NO":999,"REV_AT_EPOCH":13158,"BSTAR":5.3826955e-5,"MEAN_MOTION_DOT":3.4e-7,"MEAN_MOTION_DDOT":0},{"OBJECT_NAME":"ONEWEB-0709","OBJECT_ID":"2023-004AJ","EPOCH":"2025-09-01T06:26:34.650240","MEAN_MOTION":13.11420312,"ECCENTRICITY":8.705e-5,"INCLINATION":87.8774,"RA_OF_ASC_NODE":78.6611,"ARG_OF_PERICENTER":107.2876,"MEAN_ANOMALY":252.8347,"EPHEMERIS_TYPE":0,"CLASSIFICATION_TYPE":"U","NORAD_CAT_ID":55172,"ELEMENT_SET_NO":999,"REV_AT_EPOCH":12800,"BSTAR":-0.0013385339,"MEAN_MOTION_DOT":-4.62e-6,"MEAN_MOTION_DDOT":0},{"OBJECT_NAME":"ONEWEB-0710","OBJECT_ID":"2023-004AK","EPOCH":"2025-09-01T04:34:38.417952","MEAN_MOTION":13.17650479,"ECCENTRICITY":0.00018656,"INCLINATION":87.9027,"RA_OF_ASC_NODE":63.3733,"ARG_OF_PERICENTER":94.6542,"MEAN_ANOMALY":265.4803,"EPHEMERIS_TYPE":0,"CLASSIFICATION_TYPE":"U","NORAD_CAT_ID":55173,"ELEMENT_SET_NO":999,"REV_AT_EPOCH":12952,"BSTAR":0.00023863976,"MEAN_MOTION_DOT":1.06e-6,"MEAN_MOTION_DDOT":0},{"OBJECT_NAME":"ONEWEB-0711","OBJECT_ID":"2023-004AL","EPOCH":"2025-09-01T05:45:05.035968","MEAN_MOTION":13.11413236,"ECCENTRICITY":0.0002345,"INCLINATION":87.877,"RA_OF_ASC_NODE":78.634,"ARG_OF_PERICENTER":100.4405,"MEAN_ANOMALY":259.6988,"EPHEMERIS_TYPE":0,"CLASSIFICATION_TYPE":"U","NORAD_CAT_ID":55174,"ELEMENT_SET_NO":999,"REV_AT_EPOCH":12796,"BSTAR":0.00059629067,"MEAN_MOTION_DOT":2.24e-6,"MEAN_MOTION_DDOT":0},{"OBJECT_NAME":"ONEWEB-0713","OBJECT_ID":"2023-004AM","EPOCH":"2025-09-01T02:32:12.323616","MEAN_MOTION":13.11416105,"ECCENTRICITY":0.0001893,"INCLINATION":87.8768,"RA_OF_ASC_NODE":78.6681,"ARG_OF_PERICENTER":93.2291,"MEAN_ANOMALY":266.9054,"EPHEMERIS_TYPE":0,"CLASSIFICATION_TYPE":"U","NORAD_CAT_ID":55175,"ELEMENT_SET_NO":999,"REV_AT_EPOCH":12793,"BSTAR":-0.0014917405,"MEAN_MOTION_DOT":-5.16e-6,"MEAN_MOTION_DDOT":0},{"OBJECT_NAME":"ONEWEB-0715","OBJECT_ID":"2023-004AN","EPOCH":"2025-09-01T06:04:35.215968","MEAN_MOTION":13.11413577,"ECCENTRICITY":0.00012786,"INCLINATION":87.8769,"RA_OF_ASC_NODE":78.639,"ARG_OF_PERICENTER":111.6035,"MEAN_ANOMALY":248.5229,"EPHEMERIS_TYPE":0,"CLASSIFICATION_TYPE":"U","NORAD_CAT_ID":55176,"ELEMENT_SET_NO":999,"REV_AT_EPOCH":12799,"BSTAR":-0.00097006639,"MEAN_MOTION_DOT":-3.31e-6,"MEAN_MOTION_DDOT":0},{"OBJECT_NAME":"ONEWEB-0716","OBJECT_ID":"2023-004AP","EPOCH":"2025-09-01T06:14:15.462816","MEAN_MOTION":13.17648473,"ECCENTRICITY":0.00016836,"INCLINATION":87.9029,"RA_OF_ASC_NODE":63.3594,"ARG_OF_PERICENTER":83.1158,"MEAN_ANOMALY":277.0165,"EPHEMERIS_TYPE":0,"CLASSIFICATION_TYPE":"U","NORAD_CAT_ID":55177,"ELEMENT_SET_NO":999,"REV_AT_EPOCH":12953,"BSTAR":0.00030118226,"MEAN_MOTION_DOT":1.3e-6,"MEAN_MOTION_DDOT":0},{"OBJECT_NAME":"ONEWEB-0717","OBJECT_ID":"2023-004AQ","EPOCH":"2025-09-01T05:49:56.487360","MEAN_MOTION":13.17645185,"ECCENTRICITY":0.00022566,"INCLINATION":87.9038,"RA_OF_ASC_NODE":63.324,"ARG_OF_PERICENTER":122.0995,"MEAN_ANOMALY":238.0356,"EPHEMERIS_TYPE":0,"CLASSIFICATION_TYPE":"U","NORAD_CAT_ID":55178,"ELEMENT_SET_NO":999,"REV_AT_EPOCH":12958,"BSTAR":0.0010136986,"MEAN_MOTION_DOT":4.06e-6,"MEAN_MOTION_DDOT":0},{"OBJECT_NAME":"ONEWEB-0719","OBJECT_ID":"2023-004AR","EPOCH":"2025-09-01T06:04:32.413152","MEAN_MOTION":13.17649575,"ECCENTRICITY":0.00018485,"INCLINATION":87.9038,"RA_OF_ASC_NODE":63.3051,"ARG_OF_PERICENTER":83.2976,"MEAN_ANOMALY":276.8366,"EPHEMERIS_TYPE":0,"CLASSIFICATION_TYPE":"U","NORAD_CAT_ID":55179,"ELEMENT_SET_NO":999,"REV_AT_EPOCH":12953,"BSTAR":3.5540254e-5,"MEAN_MOTION_DOT":2.7e-7,"MEAN_MOTION_DDOT":0},{"OBJECT_NAME":"ONEWEB-0530","OBJECT_ID":"2023-029A","EPOCH":"2025-09-01T05:30:56.097216","MEAN_MOTION":13.20771359,"ECCENTRICITY":0.00023975,"INCLINATION":87.9291,"RA_OF_ASC_NODE":332.0819,"ARG_OF_PERICENTER":101.3596,"MEAN_ANOMALY":258.7806,"EPHEMERIS_TYPE":0,"CLASSIFICATION_TYPE":"U","NORAD_CAT_ID":55796,"ELEMENT_SET_NO":999,"REV_AT_EPOCH":12300,"BSTAR":-0.000141662,"MEAN_MOTION_DOT":-4.5e-7,"MEAN_MOTION_DDOT":0},{"OBJECT_NAME":"ONEWEB-0534","OBJECT_ID":"2023-029B","EPOCH":"2025-09-01T07:01:51.576384","MEAN_MOTION":13.20772143,"ECCENTRICITY":0.00018807,"INCLINATION":87.9286,"RA_OF_ASC_NODE":332.0742,"ARG_OF_PERICENTER":95.0764,"MEAN_ANOMALY":265.0584,"EPHEMERIS_TYPE":0,"CLASSIFICATION_TYPE":"U","NORAD_CAT_ID":55797,"ELEMENT_SET_NO":999,"REV_AT_EPOCH":12301,"BSTAR":-1.0813708e-5,"MEAN_MOTION_DOT":9.0e-8,"MEAN_MOTION_DDOT":0},{"OBJECT_NAME":"ONEWEB-0556","OBJECT_ID":"2023-029C","EPOCH":"2025-09-01T05:21:51.203520","MEAN_MOTION":13.20770175,"ECCENTRICITY":0.00024354,"INCLINATION":87.929,"RA_OF_ASC_NODE":332.0828,"ARG_OF_PERICENTER":84.0246,"MEAN_ANOMALY":276.1164,"EPHEMERIS_TYPE":0,"CLASSIFICATION_TYPE":"U","NORAD_CAT_ID":55798,"ELEMENT_SET_NO":999,"REV_AT_EPOCH":12300,"BSTAR":-8.532816e-5,"MEAN_MOTION_DOT":-2.2e-7,"MEAN_MOTION_DDOT":0},{"OBJECT_NAME":"ONEWEB-0562","OBJECT_ID":"2023-029D","EPOCH":"2025-09-01T06:52:44.141664","MEAN_MOTION":13.20774677,"ECCENTRICITY":0.00028628,"INCLINATION":87.9282,"RA_OF_ASC_NODE":332.0584,"ARG_OF_PERICENTER":95.5726,"MEAN_ANOMALY":264.5734,"EPHEMERIS_TYPE":0,"CLASSIFICATION_TYPE":"U","NORAD_CAT_ID":55799,"ELEMENT_SET_NO":999,"REV_AT_EPOCH":12301,"BSTAR":-3.0055503e-5,"MEAN_MOTION_DOT":1.0e-8,"MEAN_MOTION_DDOT":0},{"OBJECT_NAME":"ONEWEB-0563","OBJECT_ID":"2023-029E","EPOCH":"2025-09-01T06:43:39.684288","MEAN_MOTION":13.20800902,"ECCENTRICITY":0.00019954,"INCLINATION":87.9292,"RA_OF_ASC_NODE":332.0794,"ARG_OF_PERICENTER":90.5589,"MEAN_ANOMALY":269.5773,"EPHEMERIS_TYPE":0,"CLASSIFICATION_TYPE":"U","NORAD_CAT_ID":55800,"ELEMENT_SET_NO":999,"REV_AT_EPOCH":12300,"BSTAR":5.9532294e-5,"MEAN_MOTION_DOT":3.7e-7,"MEAN_MOTION_DDOT":0},{"OBJECT_NAME":"ONEWEB-0564","OBJECT_ID":"2023-029F","EPOCH":"2025-09-01T06:34:32.930400","MEAN_MOTION":13.20773948,"ECCENTRICITY":0.00023008,"INCLINATION":87.9288,"RA_OF_ASC_NODE":332.0639,"ARG_OF_PERICENTER":100.426,"MEAN_ANOMALY":259.7133,"EPHEMERIS_TYPE":0,"CLASSIFICATION_TYPE":"U","NORAD_CAT_ID":55801,"ELEMENT_SET_NO":999,"REV_AT_EPOCH":12301,"BSTAR":0.00018653017,"MEAN_MOTION_DOT":8.9e-7,"MEAN_MOTION_DDOT":0},{"OBJECT_NAME":"ONEWEB-0638","OBJECT_ID":"2023-029G","EPOCH":"2025-09-01T07:08:43.133280","MEAN_MOTION":13.14502868,"ECCENTRICITY":0.00022065,"INCLINATION":87.9097,"RA_OF_ASC_NODE":347.277,"ARG_OF_PERICENTER":89.3698,"MEAN_ANOMALY":270.7685,"EPHEMERIS_TYPE":0,"CLASSIFICATION_TYPE":"U","NORAD_CAT_ID":55802,"ELEMENT_SET_NO":999,"REV_AT_EPOCH":12144,"BSTAR":0.00015149298,"MEAN_MOTION_DOT":6.9e-7,"MEAN_MOTION_DDOT":0},{"OBJECT_NAME":"ONEWEB-0639","OBJECT_ID":"2023-029H","EPOCH":"2025-09-01T05:53:52.240992","MEAN_MOTION":13.19726375,"ECCENTRICITY":9.468e-5,"INCLINATION":87.9275,"RA_OF_ASC_NODE":2.4335,"ARG_OF_PERICENTER":63.755,"MEAN_ANOMALY":296.368,"EPHEMERIS_TYPE":0,"CLASSIFICATION_TYPE":"U","NORAD_CAT_ID":55803,"ELEMENT_SET_NO":999,"REV_AT_EPOCH":12079,"BSTAR":0.00013449834,"MEAN_MOTION_DOT":6.7e-7,"MEAN_MOTION_DDOT":0},{"OBJECT_NAME":"ONEWEB-0640","OBJECT_ID":"2023-029J","EPOCH":"2025-09-01T05:32:48.986592","MEAN_MOTION":13.14502877,"ECCENTRICITY":0.00020356,"INCLINATION":87.909,"RA_OF_ASC_NODE":347.276,"ARG_OF_PERICENTER":78.9981,"MEAN_ANOMALY":281.1377,"EPHEMERIS_TYPE":0,"CLASSIFICATION_TYPE":"U","NORAD_CAT_ID":55804,"ELEMENT_SET_NO":999,"REV_AT_EPOCH":12145,"BSTAR":-0.00029006088,"MEAN_MOTION_DOT":-9.5e-7,"MEAN_MOTION_DDOT":0},{"OBJECT_NAME":"ONEWEB-0641","OBJECT_ID":"2023-029K","EPOCH":"2025-09-01T05:47:02.570208","MEAN_MOTION":13.19726887,"ECCENTRICITY":0.00015588,"INCLINATION":87.9284,"RA_OF_ASC_NODE":2.4071,"ARG_OF_PERICENTER":95.4209,"MEAN_ANOMALY":264.7101,"EPHEMERIS_TYPE":0,"CLASSIFICATION_TYPE":"U","NORAD_CAT_ID":55805,"ELEMENT_SET_NO":999,"REV_AT_EPOCH":12080,"BSTAR":0.00016382521,"MEAN_MOTION_DOT":7.9e-7,"MEAN_MOTION_DDOT":0},{"OBJECT_NAME":"ONEWEB-0642","OBJECT_ID":"2023-029L","EPOCH":"2025-09-01T02:01:51.692448","MEAN_MOTION":13.19723736,"ECCENTRICITY":9.184e-5,"INCLINATION":87.9273,"RA_OF_ASC_NODE":2.4729,"ARG_OF_PERICENTER":86.8068,"MEAN_ANOMALY":273.317,"EPHEMERIS_TYPE":0,"CLASSIFICATION_TYPE":"U","NORAD_CAT_ID":55806,"ELEMENT_SET_NO":999,"REV_AT_EPOCH":12077,"BSTAR":-0.0001037051,"MEAN_MOTION_DOT":-2.9e-7,"MEAN_MOTION_DDOT":0},{"OBJECT_NAME":"ONEWEB-0643","OBJECT_ID":"2023-029M","EPOCH":"2025-09-01T06:39:02.023200","MEAN_MOTION":13.14503645,"ECCENTRICITY":0.000108,"INCLINATION":87.9093,"RA_OF_ASC_NODE":347.2505,"ARG_OF_PERICENTER":109.7762,"MEAN_ANOMALY":250.3485,"EPHEMERIS_TYPE":0,"CLASSIFICATION_TYPE":"U","NORAD_CAT_ID":55807,"ELEMENT_SET_NO":999,"REV_AT_EPOCH":12143,"BSTAR":0.0006744093,"MEAN_MOTION_DOT":2.63e-6,"MEAN_MOTION_DDOT":0},{"OBJECT_NAME":"ONEWEB-0644","OBJECT_ID":"2023-029N","EPOCH":"2025-09-01T05:33:23.572512","MEAN_MOTION":13.19724428,"ECCENTRICITY":0.00012903,"INCLINATION":87.9278,"RA_OF_ASC_NODE":2.4512,"ARG_OF_PERICENTER":94.2954,"MEAN_ANOMALY":265.8326,"EPHEMERIS_TYPE":0,"CLASSIFICATION_TYPE":"U","NORAD_CAT_ID":55808,"ELEMENT_SET_NO":999,"REV_AT_EPOCH":12079,"BSTAR":0.00020951616,"MEAN_MOTION_DOT":9.7e-7,"MEAN_MOTION_DDOT":0}]
